[{"OBJECT_NAME":"STARLINK-32372","OBJECT_ID":"2024-210B","EPOCH":"2026-03-09T07:10:04.380384","MEAN_MOTION":15.27605117,"ECCENTRICITY":0.00018737,"INCLINATION":42.9993,"RA_OF_ASC_NODE":181.7408,"ARG_OF_PERICENTER":287.3344,"MEAN_ANOMALY":72.7303,"EPHEMERIS_TYPE":0,"CLASSIFICATION_TYPE":"U","NORAD_CAT_ID":61960,"ELEMENT_SET_NO":999,"REV_AT_EPOCH":7472,"BSTAR":0.001371145,"MEAN_MOTION_DOT":0.00037691,"MEAN_MOTION_DDOT":0},{"OBJECT_NAME":"AL MUNTHER","OBJECT_ID":"2025-052AG","EPOCH":"2026-03-09T15:29:23.207136","MEAN_MOTION":15.28381521,"ECCENTRICITY":0.0008027,"INCLINATION":97.4001,"RA_OF_ASC_NODE":323.9152,"ARG_OF_PERICENTER":130.7043,"MEAN_ANOMALY":229.4895,"EPHEMERIS_TYPE":0,"CLASSIFICATION_TYPE":"U","NORAD_CAT_ID":63240,"ELEMENT_SET_NO":999,"REV_AT_EPOCH":5479,"BSTAR":0.00065015,"MEAN_MOTION_DOT":0.00017933,"MEAN_MOTION_DDOT":0}]
